[Satellite]
VERSION=1.1
NAME=DELTA 2 R/B(1)
NICKNAME=DELTA 2 R/B(1)
TLE1=1 20362U 89097B   20071.22570222  .11608607  21938-5  21862-3 0  9997
TLE2=2 20362  35.6253  35.8055 0001537 235.4649 152.4826 16.47656705656668
STATUS=0
